{
  "norad_id": 40938,
  "name": "BEIDOU-3S IGSO-2S",
  "history": [
    {
      "epoch": "2026-03-23T22:31:30.655200Z",
      "apogee_km": 36047.98028769586,
      "perigee_km": 35520.977943335514,
      "latitude_deg": -2.7555593192784986,
      "longitude_deg": 98.10888146483651,
      "height_km": 36041.00786289697,
      "semi_major_axis_km": 42162.61611551569,
      "eccentricity": 0.00624964,
      "inclination_deg": 49.3558,
      "raan_deg": 259.7919,
      "arg_perigee_deg": 189.3068,
      "mean_anomaly_deg": 166.8287,
      "mean_motion_rev_day": 1.00279333
    }
  ]
}